{
  "links" : {
    "next" : "https://api.nasa.gov/neo/rest/v1/feed?start_date=1999-09-23&end_date=1999-09-23&detailed=true&api_key=t0TVs3DtDT2H8Oy2Zy8m2eVrNsAVKAexjcZXUckd",
    "prev" : "https://api.nasa.gov/neo/rest/v1/feed?start_date=1999-09-21&end_date=1999-09-21&detailed=true&api_key=t0TVs3DtDT2H8Oy2Zy8m2eVrNsAVKAexjcZXUckd",
    "self" : "https://api.nasa.gov/neo/rest/v1/feed?start_date=1999-09-22&end_date=1999-09-22&detailed=true&api_key=t0TVs3DtDT2H8Oy2Zy8m2eVrNsAVKAexjcZXUckd"
  },
  "element_count" : 7,
  "near_earth_objects" : {
    "1999-09-22" : [ {
      "links" : {
        "self" : "https://api.nasa.gov/neo/rest/v1/neo/2417655?api_key=t0TVs3DtDT2H8Oy2Zy8m2eVrNsAVKAexjcZXUckd"
      },
      "neo_reference_id" : "2417655",
      "name" : "417655 (2006 YF13)",
      "nasa_jpl_url" : "http://ssd.jpl.nasa.gov/sbdb.cgi?sstr=2417655",
      "absolute_magnitude_h" : 19.9,
      "estimated_diameter" : {
        "kilometers" : {
          "estimated_diameter_min" : 0.2783267681,
          "estimated_diameter_max" : 0.6223575734
        },
        "meters" : {
          "estimated_diameter_min" : 278.3267680719,
          "estimated_diameter_max" : 622.3575733667
        },
        "miles" : {
          "estimated_diameter_min" : 0.1729441822,
          "estimated_diameter_max" : 0.3867149477
        },
        "feet" : {
          "estimated_diameter_min" : 913.1455937611,
          "estimated_diameter_max" : 2041.8556210042
        }
      },
      "is_potentially_hazardous_asteroid" : false,
      "close_approach_data" : [ {
        "close_approach_date" : "1999-09-22",
        "epoch_date_close_approach" : 937983600000,
        "relative_velocity" : {
          "kilometers_per_second" : "12.648083808",
          "kilometers_per_hour" : "45533.1017088554",
          "miles_per_hour" : "28292.4986701496"
        },
        "miss_distance" : {
          "astronomical" : "0.3803130353",
          "lunar" : "147.9417724609",
          "kilometers" : "56894020",
          "miles" : "35352304"
        },
        "orbiting_body" : "Earth"
      } ],
      "orbital_data" : {
        "orbit_id" : "31",
        "orbit_determination_date" : "2017-04-06 09:21:16",
        "orbit_uncertainty" : "0",
        "minimum_orbit_intersection" : ".0807597",
        "jupiter_tisserand_invariant" : "6.419",
        "epoch_osculation" : "2458000.5",
        "eccentricity" : ".4034355461548302",
        "semi_major_axis" : ".9188845107918439",
        "inclination" : "10.53351561859993",
        "ascending_node_longitude" : "205.297250983349",
        "orbital_period" : "321.7287141305948",
        "perihelion_distance" : ".5481738363273223",
        "perihelion_argument" : "95.41295794635703",
        "aphelion_distance" : "1.289595185256365",
        "perihelion_time" : "2457849.117317436306",
        "mean_anomaly" : "169.3904315323507",
        "mean_motion" : "1.118955145091185",
        "equinox" : "J2000"
      }
    }, {
      "links" : {
        "self" : "https://api.nasa.gov/neo/rest/v1/neo/3147315?api_key=t0TVs3DtDT2H8Oy2Zy8m2eVrNsAVKAexjcZXUckd"
      },
      "neo_reference_id" : "3147315",
      "name" : "(2003 BN4)",
      "nasa_jpl_url" : "http://ssd.jpl.nasa.gov/sbdb.cgi?sstr=3147315",
      "absolute_magnitude_h" : 24.0,
      "estimated_diameter" : {
        "kilometers" : {
          "estimated_diameter_min" : 0.0421264611,
          "estimated_diameter_max" : 0.0941976306
        },
        "meters" : {
          "estimated_diameter_min" : 42.1264610556,
          "estimated_diameter_max" : 94.1976305719
        },
        "miles" : {
          "estimated_diameter_min" : 0.0261761612,
          "estimated_diameter_max" : 0.0585316759
        },
        "feet" : {
          "estimated_diameter_min" : 138.2101784897,
          "estimated_diameter_max" : 309.0473542854
        }
      },
      "is_potentially_hazardous_asteroid" : false,
      "close_approach_data" : [ {
        "close_approach_date" : "1999-09-22",
        "epoch_date_close_approach" : 937983600000,
        "relative_velocity" : {
          "kilometers_per_second" : "6.7078283443",
          "kilometers_per_hour" : "24148.1820395534",
          "miles_per_hour" : "15004.7412234103"
        },
        "miss_distance" : {
          "astronomical" : "0.437206178",
          "lunar" : "170.0731964111",
          "kilometers" : "65405112",
          "miles" : "40640852"
        },
        "orbiting_body" : "Earth"
      } ],
      "orbital_data" : {
        "orbit_id" : "23",
        "orbit_determination_date" : "2017-04-06 09:14:24",
        "orbit_uncertainty" : "0",
        "minimum_orbit_intersection" : ".0700824",
        "jupiter_tisserand_invariant" : "5.068",
        "epoch_osculation" : "2458000.5",
        "eccentricity" : ".1709397701603758",
        "semi_major_axis" : "1.269416406161483",
        "inclination" : "5.589897491545761",
        "ascending_node_longitude" : "307.5931578610928",
        "orbital_period" : "522.4017068421587",
        "perihelion_distance" : "1.052422657454428",
        "perihelion_argument" : "193.2657026750948",
        "aphelion_distance" : "1.486410154868537",
        "perihelion_time" : "2457901.649876183739",
        "mean_anomaly" : "68.12007715090819",
        "mean_motion" : ".6891248540824013",
        "equinox" : "J2000"
      }
    }, {
      "links" : {
        "self" : "https://api.nasa.gov/neo/rest/v1/neo/3278182?api_key=t0TVs3DtDT2H8Oy2Zy8m2eVrNsAVKAexjcZXUckd"
      },
      "neo_reference_id" : "3278182",
      "name" : "(2005 JZ93)",
      "nasa_jpl_url" : "http://ssd.jpl.nasa.gov/sbdb.cgi?sstr=3278182",
      "absolute_magnitude_h" : 24.7,
      "estimated_diameter" : {
        "kilometers" : {
          "estimated_diameter_min" : 0.0305179233,
          "estimated_diameter_max" : 0.0682401509
        },
        "meters" : {
          "estimated_diameter_min" : 30.5179232594,
          "estimated_diameter_max" : 68.2401509401
        },
        "miles" : {
          "estimated_diameter_min" : 0.0189629525,
          "estimated_diameter_max" : 0.0424024508
        },
        "feet" : {
          "estimated_diameter_min" : 100.1244233463,
          "estimated_diameter_max" : 223.8850168104
        }
      },
      "is_potentially_hazardous_asteroid" : false,
      "close_approach_data" : [ {
        "close_approach_date" : "1999-09-22",
        "epoch_date_close_approach" : 937983600000,
        "relative_velocity" : {
          "kilometers_per_second" : "7.8298800279",
          "kilometers_per_hour" : "28187.5681002841",
          "miles_per_hour" : "17514.6586343126"
        },
        "miss_distance" : {
          "astronomical" : "0.437912133",
          "lunar" : "170.3478240967",
          "kilometers" : "65510724",
          "miles" : "40706476"
        },
        "orbiting_body" : "Earth"
      } ],
      "orbital_data" : {
        "orbit_id" : "9",
        "orbit_determination_date" : "2017-04-06 09:10:58",
        "orbit_uncertainty" : "7",
        "minimum_orbit_intersection" : ".00676494",
        "jupiter_tisserand_invariant" : "4.873",
        "epoch_osculation" : "2458000.5",
        "eccentricity" : ".2408604278457406",
        "semi_major_axis" : "1.32010783976928",
        "inclination" : "17.64451847317126",
        "ascending_node_longitude" : "54.56227200131111",
        "orbital_period" : "554.0035430505328",
        "perihelion_distance" : "1.002146100679934",
        "perihelion_argument" : "202.4427797627355",
        "aphelion_distance" : "1.638069578858625",
        "perihelion_time" : "2457957.933093970761",
        "mean_anomaly" : "27.66062846123055",
        "mean_motion" : ".6498153387570718",
        "equinox" : "J2000"
      }
    } ]
  }
}